[{"OBJECT_NAME":"OBJECT E","OBJECT_ID":"2024-105E","EPOCH":"2026-03-10T00:03:44.143200","MEAN_MOTION":15.19028023,"ECCENTRICITY":0.00116899,"INCLINATION":97.5872,"RA_OF_ASC_NODE":85.441,"ARG_OF_PERICENTER":201.8034,"MEAN_ANOMALY":158.2704,"EPHEMERIS_TYPE":0,"CLASSIFICATION_TYPE":"U","NORAD_CAT_ID":59921,"ELEMENT_SET_NO":999,"REV_AT_EPOCH":9809,"BSTAR":0.00030074401,"MEAN_MOTION_DOT":6.239e-5,"MEAN_MOTION_DDOT":0},{"OBJECT_NAME":"OBJECT Q","OBJECT_ID":"2024-205Q","EPOCH":"2026-03-09T08:02:25.893024","MEAN_MOTION":15.17509239,"ECCENTRICITY":0.00132024,"INCLINATION":97.4206,"RA_OF_ASC_NODE":142.9783,"ARG_OF_PERICENTER":51.3231,"MEAN_ANOMALY":308.9181,"EPHEMERIS_TYPE":0,"CLASSIFICATION_TYPE":"U","NORAD_CAT_ID":61908,"ELEMENT_SET_NO":999,"REV_AT_EPOCH":7319,"BSTAR":0.00052829629,"MEAN_MOTION_DOT":0.00010555,"MEAN_MOTION_DDOT":0}]
